STARLINK-36288          
1 69164U 26111S   26167.25002315 -.02468468  00000+0 -36489-1 0  9997
2 69164  53.1605 156.7363 0001203  68.0878  54.4653 15.58461002  5400
STARLINK-37445          
1 69165U 26111T   26167.25002315 -.02459318  00000+0 -40085-1 0  9999
2 69165  53.1598 156.8131 0001022  70.0837  14.6371 15.55864288  5408
STARLINK-37491          
1 69166U 26111U   26167.25002315 -.02537002  00000+0 -29901-1 0  9991
2 69166  53.1597 156.5924 0001531  83.1376 110.3106 15.64352739  5406
STARLINK-37474          
1 69167U 26111V   26165.49285652  .00248272  00000+0  13871-2 0  9997
2 69167  53.1570 165.2100 0000913  76.2100 283.9024 15.78142856  3835
STARLINK-37469          
1 69168U 26111W   26167.27479739  .00070013  00000+0  12549-2 0  9994
2 69168  53.1591 157.8715 0000901  79.0890 281.0220 15.49326767  4091
STARLINK-37515          
1 69169U 26111X   26167.25002315 -.02512780  00000+0 -34266-1 0  9990
2 69169  53.1597 156.6206 0001463  78.5454 100.6103 15.60621690  5402
STARLINK-37437          
1 69170U 26111Y   26167.25002315 -.02506609  00000+0 -29526-1 0  9998
2 69170  53.1593 156.4953 0001423  97.7145 142.6184 15.64321854  5401
STARLINK-37392          
1 69171U 26111Z   26167.25002315 -.00709869  00000+0 -94630-2 0  9999
2 69171  53.1596 156.5650 0001556  86.2745 119.3661 15.59838474  5402
STARLINK-37472          
1 69172U 26111AA  26167.25002315  .00015932  00000+0  29414-3 0  9998
2 69172  53.1599 156.9984 0000737 129.9335 221.2903 15.49287096  5409
STARLINK-37461          
1 69173U 26111AB  26167.26668139  .00041506  00000+0  74917-3 0  9996
2 69173  53.1597 157.8148 0001752  77.3772 282.7433 15.49354122  4098
STARLINK-37333          
1 69174U 26111AC  26167.25002315 -.02523831  00000+0 -37509-1 0  9998
2 69174  53.1602 156.7572 0001192  72.0377  39.5175 15.58410723  5403
STARLINK-37385          
1 69175U 26111AD  26167.19449965  .00071013  00000+0  12715-2 0  9997
2 69175  53.1597 158.0776 0001212 108.2348 251.8793 15.49349443  4089
STARLINK-37414          
1 69176U 26111AE  26167.25002315 -.02527818  00000+0 -35887-1 0  9996
2 69176  53.1597 156.5781 0001447  87.4773 111.7222 15.59606979  5408
STRIX-7                 
1 69177U 26112A   26167.24088644  .00001852  00000+0  15833-3 0  9998
2 69177  44.9055 197.4196 0023235  41.6932 318.5705 15.01432512  3732
SHENZHOU-23 (SZ-23)     
1 69180U 26113A   26167.08121934  .00020101  00000+0  23775-3 0  9997
2 69180  41.4696 328.7320 0007464  68.7189 291.4446 15.60769173293112
STARLINK-37380          
1 69182U 26114A   26167.26953524  .00128944  00000+0  73407-3 0  9999
2 69182  53.1574 207.0888 0001351 125.3622 234.7526 15.78092343  4620
STARLINK-37089          
1 69183U 26114B   26167.26860278  .00256081  00000+0  14294-2 0  9995
2 69183  53.1572 207.0842 0001032 140.3303 219.7794 15.78141369  4621
STARLINK-37428          
1 69184U 26114C   26167.26718952  .00068750  00000+0  39603-3 0  9993
2 69184  53.1574 207.0743 0001128  73.8387 286.2759 15.78087977  4626
STARLINK-37237          
1 69185U 26114D   26167.20111143  .00246103  00000+0  13758-2 0  9999
2 69185  53.1572 207.3716 0001543  48.2103 311.9050 15.78135536  4615
STARLINK-37365          
1 69186U 26114E   26167.26475640  .00115535  00000+0  65941-3 0  9997
2 69186  53.1572 207.0568 0001142 117.5575 242.5563 15.78084239  4628
STARLINK-37209          
1 69187U 26114F   26167.26398428  .00168729  00000+0  95410-3 0  9993
2 69187  53.1572 207.0520 0001255  98.7534 261.3629 15.78111648  4624
STARLINK-37359          
1 69188U 26114G   26167.20021148  .00153894  00000+0  87284-3 0  9997
2 69188  53.1574 207.3660 0001039  64.9368 295.1762 15.78091926  4613
STARLINK-37440          
1 69189U 26114H   26167.25002315 -.01213473  00000+0 -88452-2 0  9998
2 69189  53.1588 206.5528 0001176  77.3242 119.4297 15.75476881  4664
STARLINK-37282          
1 69190U 26114J   26167.19375500  .00262568  00000+0  14642-2 0  9998
2 69190  53.1572 207.3217 0000815  55.7492 304.3606 15.78143703  4610
STARLINK-37422          
1 69191U 26114K   26166.41909786  .00276916  00000+0  13541-2 0  9991
2 69191  53.1579 211.0244 0001267 164.9839 195.1222 15.80999095  4492
STARLINK-37424          
1 69192U 26114L   26167.32045206  .01108559  00000+0  55328-2 0  9998
2 69192  53.1570 206.6903 0004564 341.8146  18.2712 15.78785102  4630
STARLINK-36666          
1 69193U 26114M   26167.30439214  .00201850  00000+0  99983-3 0  9996
2 69193  53.1569 206.5836 0000991  93.8192 266.2944 15.80930474  4637
STARLINK-37355          
1 69194U 26114N   26167.17720251  .00145889  00000+0  72912-3 0  9998
2 69194  53.1570 207.2119 0001338  73.0307 287.0862 15.80906772  4618
STARLINK-37166          
1 69195U 26114P   26167.30213988  .00307366  00000+0  14991-2 0  9990
2 69195  53.1568 206.5681 0000959  96.9409 263.1723 15.80972457  4633
