OBJECT_NAME,OBJECT_ID,EPOCH,MEAN_MOTION,ECCENTRICITY,INCLINATION,RA_OF_ASC_NODE,ARG_OF_PERICENTER,MEAN_ANOMALY,EPHEMERIS_TYPE,CLASSIFICATION_TYPE,NORAD_CAT_ID,ELEMENT_SET_NO,REV_AT_EPOCH,BSTAR,MEAN_MOTION_DOT,MEAN_MOTION_DDOT
STARLINK-36288,2026-111S,2026-06-16T06:00:02.000160,15.58461002,.00012038,53.1605,156.7363,68.0878,54.4653,0,U,69164,999,540,-.36489452E-1,-.2468468E-1,0
STARLINK-37445,2026-111T,2026-06-16T06:00:02.000160,15.55864288,.00010229,53.1598,156.8131,70.0837,14.6371,0,U,69165,999,540,-.40085204E-1,-.2459318E-1,0
STARLINK-37491,2026-111U,2026-06-16T06:00:02.000160,15.64352739,.00015319,53.1597,156.5924,83.1376,110.3106,0,U,69166,999,540,-.29900647E-1,-.2537002E-1,0
STARLINK-37474,2026-111V,2026-06-14T11:49:42.803328,15.78142856,.00009138,53.1570,165.2100,76.2100,283.9024,0,U,69167,999,383,.13870743E-2,.248272E-2,0
STARLINK-37469,2026-111W,2026-06-16T06:35:42.494496,15.49326767,.00009015,53.1591,157.8715,79.0890,281.0220,0,U,69168,999,409,.1254858E-2,.70013E-3,0
STARLINK-37515,2026-111X,2026-06-16T06:00:02.000160,15.60621690,.00014632,53.1597,156.6206,78.5454,100.6103,0,U,69169,999,540,-.34266411E-1,-.251278E-1,0
STARLINK-37437,2026-111Y,2026-06-16T06:00:02.000160,15.64321854,.00014233,53.1593,156.4953,97.7145,142.6184,0,U,69170,999,540,-.29525875E-1,-.2506609E-1,0
STARLINK-37392,2026-111Z,2026-06-16T06:00:02.000160,15.59838474,.00015565,53.1596,156.5650,86.2745,119.3661,0,U,69171,999,540,-.94629662E-2,-.709869E-2,0
STARLINK-37472,2026-111AA,2026-06-16T06:00:02.000160,15.49287096,.00007378,53.1599,156.9984,129.9335,221.2903,0,U,69172,999,540,.29414309E-3,.15932E-3,0
STARLINK-37461,2026-111AB,2026-06-16T06:24:01.272096,15.49354122,.00017522,53.1597,157.8148,77.3772,282.7433,0,U,69173,999,409,.74916773E-3,.41506E-3,0
STARLINK-37333,2026-111AC,2026-06-16T06:00:02.000160,15.58410723,.00011926,53.1602,156.7572,72.0377,39.5175,0,U,69174,999,540,-.37508891E-1,-.2523831E-1,0
STARLINK-37385,2026-111AD,2026-06-16T04:40:04.769760,15.49349443,.00012129,53.1597,158.0776,108.2348,251.8793,0,U,69175,999,408,.12714854E-2,.71013E-3,0
STARLINK-37414,2026-111AE,2026-06-16T06:00:02.000160,15.59606979,.00014474,53.1597,156.5781,87.4773,111.7222,0,U,69176,999,540,-.3588684E-1,-.2527818E-1,0
STRIX-7,2026-112A,2026-06-16T05:46:52.588416,15.01432512,.00232351,44.9055,197.4196,41.6932,318.5705,0,U,69177,999,373,.15832977E-3,.1852E-4,0
SHENZHOU-23 (SZ-23),2026-113A,2026-06-16T01:56:57.350976,15.60769173,.00074641,41.4696,328.7320,68.7189,291.4446,0,U,69180,999,29311,.23775334E-3,.20101E-3,0
STARLINK-37380,2026-114A,2026-06-16T06:28:07.844736,15.78092343,.00013519,53.1574,207.0888,125.3622,234.7526,0,U,69182,999,462,.73407398E-3,.128944E-2,0
STARLINK-37089,2026-114B,2026-06-16T06:26:47.280192,15.78141369,.00010329,53.1572,207.0842,140.3303,219.7794,0,U,69183,999,462,.14293637E-2,.256081E-2,0
STARLINK-37428,2026-114C,2026-06-16T06:24:45.174528,15.78087977,.00011285,53.1574,207.0743,73.8387,286.2759,0,U,69184,999,462,.39602916E-3,.6875E-3,0
STARLINK-37237,2026-114D,2026-06-16T04:49:36.027552,15.78135536,.00015436,53.1572,207.3716,48.2103,311.9050,0,U,69185,999,461,.13758027E-2,.246103E-2,0
STARLINK-37365,2026-114E,2026-06-16T06:21:14.952960,15.78084239,.0001142,53.1572,207.0568,117.5575,242.5563,0,U,69186,999,462,.65941195E-3,.115535E-2,0
STARLINK-37209,2026-114F,2026-06-16T06:20:08.241792,15.78111648,.00012559,53.1572,207.0520,98.7534,261.3629,0,U,69187,999,462,.95410121E-3,.168729E-2,0
STARLINK-37359,2026-114G,2026-06-16T04:48:18.271872,15.78091926,.00010391,53.1574,207.3660,64.9368,295.1762,0,U,69188,999,461,.87283859E-3,.153894E-2,0
STARLINK-37440,2026-114H,2026-06-16T06:00:02.000160,15.75476881,.00011762,53.1588,206.5528,77.3242,119.4297,0,U,69189,999,466,-.88452327E-2,-.1213473E-1,0
STARLINK-37282,2026-114J,2026-06-16T04:39:00.432000,15.78143703,.00008153,53.1572,207.3217,55.7492,304.3606,0,U,69190,999,461,.14641887E-2,.262568E-2,0
STARLINK-37422,2026-114K,2026-06-15T10:03:30.055104,15.80999095,.00012671,53.1579,211.0244,164.9839,195.1222,0,U,69191,999,449,.13541344E-2,.276916E-2,0
STARLINK-37424,2026-114L,2026-06-16T07:41:27.057984,15.78785102,.00045648,53.1570,206.6903,341.8146,18.2712,0,U,69192,999,463,.55327514E-2,.1108559E-1,0
STARLINK-36666,2026-114M,2026-06-16T07:18:19.480896,15.80930474,.00009913,53.1569,206.5836,93.8192,266.2944,0,U,69193,999,463,.99983325E-3,.20185E-2,0
STARLINK-37355,2026-114N,2026-06-16T04:15:10.296864,15.80906772,.00013388,53.1570,207.2119,73.0307,287.0862,0,U,69194,999,461,.72912022E-3,.145889E-2,0
STARLINK-37166,2026-114P,2026-06-16T07:15:04.885632,15.80972457,.00009592,53.1568,206.5681,96.9409,263.1723,0,U,69195,999,463,.14991323E-2,.307366E-2,0
